[
    {
        "Altitude(m)": 611965.2252306038,
        "Argument of Periapsis(deg)": 0.0,
        "Eccentricity": 0.0,
        "Inclination(deg)": 60.0,
        "Latitude(deg)": 59.14028243470832,
        "Longitude(deg)": 143.96993298211683,
        "Mean Anomaly(deg)": 81.8182,
        "RAAN(deg)": 170.00000000000003,
        "Satellite Name": "Test1 753",
        "Satellite Number": 753,
        "Semi-Major Axis(m)": 6980739.136638005,
        "Time(s)": 0
    },
    {
        "Altitude(m)": 611995.8501715244,
        "Argument of Periapsis(deg)": 0.00010418945913296404,
        "Eccentricity": 0.0,
        "Inclination(deg)": 60.0,
        "Latitude(deg)": 59.28338102896409,
        "Longitude(deg)": 145.10329980481058,
        "Mean Anomaly(deg)": 82.43830614546187,
        "RAAN(deg)": 169.99957995086027,
        "Satellite Name": "Test1 753",
        "Satellite Number": 753,
        "Semi-Major Axis(m)": 6980739.136638005,
        "Time(s)": 10
    }
]